0 COSMOS 252 DEB
1 03549U 68097B   13282.48569487  .00010494  00000-0  20663-2 0  1650
2 03549 062.3040 062.1839 0470535 204.9759 220.9194 14.10684913207774
0 COSMOS 252 DEB
1 03549U 68097B   13283.48964412  .00010364  00000-0  20421-2 0  1667
2 03549 062.3042 059.1810 0470355 205.2403 279.4532 14.10700475207914
0 COSMOS 252 DEB
1 03549U 68097B   13283.67730821  .00010487  00000-0  20326-2 0  1674
2 03549 062.3033 058.6240 0470364 205.2995 152.4803 14.10694333207940
0 COSMOS 252 DEB
1 03549U 68097B   13285.47452269  .00009149  00000-0  18076-2 0  1673
2 03549 062.3047 053.2427 0470061 205.7698 279.7910 14.10734376208194
0 COSMOS 252 DEB
1 03549U 68097B   13286.52881689  .00008827  00000-0  17458-2 0  1688
2 03549 062.3051 050.0882 0469881 206.0482 234.2024 14.10752529208341
0 COSMOS 252 DEB
1 03549U 68097B   13287.59642576  .00011928  00000-0  23479-2 0  1693
2 03549 062.3058 046.8953 0469678 206.3374 256.2991 14.10772106208493
0 COSMOS 252 DEB
1 03549U 68097B   13289.44299793  .00011261  00000-0  22192-2 0  1701
2 03549 062.3069 041.3712 0469363 206.8343 274.7481 14.10814316208758
0 COSMOS 252 DEB
1 03549U 68097B   13290.55262596  .00009276  00000-0  17996-2 0  1727
2 03549 062.3055 038.0528 0469339 207.0964 150.5333 14.10834920208914
0 COSMOS 252 DEB
1 03549U 68097B   13290.64553427  .00011869  00000-0  23379-2 0  1715
2 03549 062.3073 037.7738 0469150 207.1590 262.3831 14.10838462208921
0 COSMOS 252 DEB
1 03549U 68097B   13291.77472403  .00010211  00000-0  20166-2 0  1726
2 03549 062.3073 034.3956 0468978 207.4679 237.5892 14.10861880209083
0 COSMOS 252 DEB
1 03549U 68097B   13293.41271771  .00010165  00000-0  20085-2 0  1733
2 03549 062.3070 029.4953 0468701 207.9135 277.2083 14.10896880209315
0 COSMOS 252 DEB
1 03549U 68097B   13294.46758008  .00010858  00000-0  21439-2 0  1746
2 03549 062.3065 026.3392 0468512 208.1945 235.1220 14.10914207209460
0 COSMOS 252 DEB
1 03549U 68097B   13295.81765198  .00009960  00000-0  19698-2 0  1751
2 03549 062.3057 022.3000 0468320 208.5577 252.5785 14.10939648209651
